IRIDIUM 921             
1 24873U 97034E   24146.49299227  .00031700  00000+0  84478-3 0  9992
2 24873  86.3794 299.3415 0003007 356.2241   3.8988 15.38022600471699
IRIDIUM 26              
1 24903U 97043A   24147.03662222  .00000856  00000+0  28601-3 0  9990
2 24903  86.3941 273.0488 0001936  90.4204 269.7215 14.36373390401625
IRIDIUM 22              
1 24907U 97043E   24147.07515095  .00000811  00000+0  27651-3 0  9998
2 24907  86.3943 276.2538 0002157  92.7146 267.4297 14.35262706401226
DUMMY MASS 1            
1 24925U 97048A   24147.17654131  .00000800  00000+0  87813-4 0  9994
2 24925  86.3319 314.1651 0009141  81.2109 279.0150 14.86214789447875
IRIDIUM 33              
1 24946U 97051C   24147.16068326  .00000558  00000+0  19165-3 0  9999
2 24946  86.3841 305.3961 0005814 258.6749 101.3793 14.34366800397269
IRIDIUM 28              
1 24948U 97051E   24147.17312186  .00000747  00000+0  24731-3 0  9993
2 24948  86.3932 303.8740 0001695  89.8759 270.2632 14.36662297398336
